{
    "links": {
        "self": "http://www.neowsapp.com/rest/v1/neo/3989170?api_key=iIulBulltgU6a56xZRHN4H3l9WmuAYTsLGpBGhQ2"
    },
    "id": "3989170",
    "neo_reference_id": "3989170",
    "name": "(2020 BO7)",
    "designation": "2020 BO7",
    "nasa_jpl_url": "http://ssd.jpl.nasa.gov/sbdb.cgi?sstr=3989170",
    "absolute_magnitude_h": 23.765,
    "estimated_diameter": {
        "kilometers": {
            "estimated_diameter_min": 0.0469412853,
            "estimated_diameter_max": 0.1049639048
        },
        "meters": {
            "estimated_diameter_min": 46.9412852738,
            "estimated_diameter_max": 104.9639048235
        },
        "miles": {
            "estimated_diameter_min": 0.0291679534,
            "estimated_diameter_max": 0.0652215265
        },
        "feet": {
            "estimated_diameter_min": 154.0068463778,
            "estimated_diameter_max": 344.3697775012
        }
    },
    "is_potentially_hazardous_asteroid": false,
    "close_approach_data": [
        {
            "close_approach_date": "2020-02-16",
            "close_approach_date_full": "2020-Feb-16 20:34",
            "epoch_date_close_approach": 1581885240000,
            "relative_velocity": {
                "kilometers_per_second": "2.651915662",
                "kilometers_per_hour": "9546.8963832906",
                "miles_per_hour": "5932.0701443841"
            },
            "miss_distance": {
                "astronomical": "0.2861415605",
                "lunar": "111.3090670345",
                "kilometers": "42806167.969276135",
                "miles": "26598519.386375263"
            },
            "orbiting_body": "Earth"
        }
    ],
    "orbital_data": {
        "orbit_id": "1",
        "orbit_determination_date": "2020-01-25 11:42:09",
        "first_observation_date": "2020-01-22",
        "last_observation_date": "2020-01-25",
        "data_arc_in_days": 3,
        "observations_used": 14,
        "orbit_uncertainty": "9",
        "minimum_orbit_intersection": ".269031",
        "jupiter_tisserand_invariant": "3.270",
        "epoch_osculation": "2458872.5",
        "eccentricity": ".5004823420355466",
        "semi_major_axis": "2.517941279791381",
        "inclination": "1.821018242428771",
        "ascending_node_longitude": "155.3552209976769",
        "orbital_period": "1459.374735767734",
        "perihelion_distance": "1.257756130973409",
        "perihelion_argument": "354.3913611062883",
        "aphelion_distance": "3.778126428609353",
        "perihelion_time": "2458904.325818368725",
        "mean_anomaly": "352.1491757175626",
        "mean_motion": ".2466809868478466",
        "equinox": "J2000",
        "orbit_class": {
            "orbit_class_type": "AMO",
            "orbit_class_description": "Near-Earth asteroid orbits similar to that of 1221 Amor",
            "orbit_class_range": "1.017 AU < q (perihelion) < 1.3 AU"
        }
    },
    "is_sentry_object": false
}